0211P         2022 10  4.6086  2.327669  0.343569    4.2786  117.1315   18.9213  20220208  12.5  4.0  211P/Hill                                                MPEC 2022-C56
0212P         2024 04 25.2333  1.605468  0.587543   14.0757   98.2019   22.1907  20220208  17.0  2.0  212P/NEAT                                                MPEC 2021-F20
0213P         2023 11 11.2640  1.980737  0.408243    5.6804  311.2941   10.3812  20220208  10.5  4.0  213P/Van Ness                                            MPC114608
0214P         2022 09 26.2631  1.860832  0.485853  190.2034  348.2494   15.1834  20220208  13.0  4.0  214P/LINEAR                                              MPC 92986
0215P         2019 11 19.2344  3.607774  0.166621  262.2734   56.6852   10.5795  20220208  11.0  4.0  215P/NEAT                                                MPEC 2022-C56
0216P         2024 01  6.8041  2.134836  0.447704  151.4238  359.8125    9.0648  20220208  13.0  4.0  216P/LINEAR                                              MPC100284
0217P         2025 05 24.6395  1.228213  0.689050  246.8721  125.4634   12.8633  20220208  12.0  4.0  217P/LINEAR                                              MPEC 2021-N06
0218P         2020 10  3.7977  1.167667  0.622289   59.6845  175.9773    2.7287  20220208  16.0  4.0  218P/LINEAR                                              MPEC 2020-K19
0219P         2024 02 13.4503  2.356599  0.354106  107.4915  230.9566   11.5352  20220208  11.0  4.0  219P/LINEAR                                              MPC100284
0220P         2020 12 10.6367  1.553010  0.501663  180.5628  150.1021    8.1288  20220208  15.0  4.0  220P/McNaught                                            MPEC 2021-BE3
0221P         2021 12 18.0770  1.753133  0.492690   40.1204  229.7015   11.4275  20220208  14.5  4.0  221P/LINEAR                                              MPEC 2021-J28
0222P         2024 05 12.6831  0.827009  0.714747  346.2588    6.7765    5.0983  20220208  20.0  4.0  222P/LINEAR                                              MPC 92277
0223P         2019 01 27.9304  2.427875  0.416233   37.8237  346.7706   27.0263  20220208  12.0  4.0  223P/Skiff                                               MPEC 2021-S45
0224P         2022 09 29.9121  2.045673  0.406519   16.6454   40.0589   13.3004  20220208  15.5  4.0  224P/LINEAR-NEAT                                         MPC 75727
0225P         2023 08  8.1116  1.319873  0.638313    3.8843   14.2005   21.3653  20220208  18.0  4.0  225P/LINEAR                                              MPC 75727
0226P         2023 12 27.3571  1.775192  0.528742  341.0475   54.0049   44.0350  20220208  12.5  4.0  226P/Pigott-LINEAR-Kowalski                              MPC106349
0227P         2024 03  1.8079  1.661276  0.527205   97.9764   42.3028    6.8519  20220208  16.5  2.0  227P/Catalina-LINEAR                                     MPC102956
0228P         2020 03  9.0933  3.434340  0.176250  115.0469   30.9827    7.9127  20220208  14.5  2.0  228P/LINEAR                                              MPEC 2020-L06
0229P         2025 03  5.5638  2.445426  0.377505  223.9881  157.9107   26.0923  20220208  13.0  4.0  229P/Gibbs                                               MPC106349
0230P         2022 03 19.3300  1.568779  0.545445  313.4283  106.9849   15.4702  20220208  13.0  4.0  230P/LINEAR                                              MPEC 2022-A21
0231P         2019 06 17.5887  3.044625  0.245830   43.9045  133.0170   12.3265  20220208  14.5  2.0  231P/LINEAR-NEAT                                         MPEC 2020-K19
0232P         2019 04  5.6122  2.980786  0.334306   53.3254   56.0161   14.6380  20220208  11.5  4.0  232P/Hill                                                MPC112394
0233P         2020 10  1.5955  1.781782  0.411881   27.0074   74.9162   11.2853  20220208  15.0  4.0  233P/La Sagra                                            MPEC 2021-N06
0234P         2024 10 23.9968  2.828304  0.255500  357.2238  179.5692   11.5347  20220208  12.0  4.0  234P/LINEAR                                              MPC110497
0235P         2018 03 21.4090  2.652219  0.328407  333.4258  202.9497    9.0368  20220208  12.0  4.0  235P/LINEAR                                              MPC110497
0236P         2025 02  3.5027  1.830398  0.509197  119.2730  245.5981   16.3418  20220208  14.0  4.0  236P/LINEAR                                              MPC107688
0237P         2023 05 14.6113  1.986825  0.434324   25.2380  245.3748   14.0147  20220208  14.5  2.0  237P/LINEAR                                              MPC109593
0238P         2022 06  5.6994  2.369197  0.252300  324.2910   51.6233    1.2641  20220208  14.5  4.0  238P/Read                                                MPC107688
0239P         2019 01  9.2746  1.653266  0.630077  220.4168  255.9155   11.2983  20220208  17.5  2.0  239P/LINEAR                                              MPEC 2021-F20
0240P         2018 05 15.7700  2.128818  0.449298  351.9460   74.9086   23.5182  20220208  12.1  4.0  240P/NEAT                                                MPEC 2021-F20
0241P         2021 07 25.8511  1.917603  0.610123  111.4369  305.4841   21.1062  20220208  13.5  4.0  241P/LINEAR                                              MPEC 2022-C56
0242P         2024 12 30.8902  3.961627  0.278371  245.7959  180.3858   32.5036  20220208   8.0  4.0  242P/Spahr                                               MPEC 2021-S45
0243P         2018 08 27.0772  2.450115  0.360385  283.5685   87.6229    7.6404  20220208  12.5  4.0  243P/NEAT                                                MPC111774
0244P         2022 11 16.8346  3.920664  0.199012   93.0479  353.9910    2.2594  20220208   9.0  4.0  244P/Scotti                                              MPEC 2022-C56
0245P         2018 02  8.1585  2.197856  0.456746  316.8814  316.6531   21.1956  20220208  14.0  4.0  245P/WISE                                                MPEC 2020-K19
0246P         2021 02 23.6891  2.864670  0.288198  176.5326   78.6878   15.9728  20220208  10.5  4.0  246P/NEAT                                                MPEC 2021-WD8
0247P         2018 12  1.3137  1.490915  0.624313   47.4415   54.0146   13.6553  20220208  16.5  2.0  247P/LINEAR                                              MPEC 2021-F20
0248P         2025 09 15.5514  2.164969  0.638650  209.8537  207.7901    6.3501  20220208  14.0  4.0  248P/Gibbs                                               MPC 75730
0249P         2020 06 29.4880  0.497437  0.819976   65.6741  239.1348    8.3907  20220208  15.5  4.0  249P/LINEAR                                              MPEC 2021-S45
0250P         2025 05 17.9662  2.260158  0.399698   46.1576   73.4373   13.1593  20220208  14.5  4.0  250P/Larson                                              MPC110497
0251P         2024 02 13.1844  1.739098  0.504764   31.2841  219.3637   23.3886  20220208  16.5  2.0  251P/LINEAR                                              MPC104795
0252P         2021 07 11.2931  1.000616  0.671855  343.3093  190.9413   10.4100  20220208  17.5  4.0  252P/LINEAR                                              MPEC 2021-S45
0253P         2024 10 20.8769  2.030242  0.414225  230.6538  146.8847    4.9435  20220208  14.5  4.0  253P/PANSTARRS                                           MPEC 2020-FB5
0254P         2020 09 30.0323  3.138022  0.319783  219.5644  129.1775   32.5717  20220208  11.0  4.0  254P/McNaught                                            MPEC 2022-C56
0255P         2022 09  7.2654  0.848601  0.711746  185.9743  275.6993   13.4140  20220208  14.1  4.0  255P/Levy                                                MPEC 2021-UA9
0256P         2023 03 12.3739  2.699801  0.417997  124.2234   81.3448   27.6212  20220208  14.0  2.0  256P/LINEAR                                              MPEC 2022-C56
0257P         2020 09 10.7509  2.143401  0.430350  117.6932  207.7293   20.2212  20220208  11.5  4.0  257P/Catalina                                            MPEC 2021-Y10
0258P         2020 06 18.3814  3.480330  0.208463   25.9210  126.2445    6.7461  20220208  13.0  4.0  258P/PANSTARRS                                           MPEC 2021-U31
0259P         2022 02  8.4024  1.805641  0.338702  257.6462   51.4488   15.8904  20220208  15.5  4.0  259P/Garradd                                             MPC106349
0260P         2019 09 10.3458  1.415679  0.609264   18.4203  349.3383   15.0583  20220208  13.5  4.0  260P/McNaught                                            MPEC 2020-SI8
0261P         2019 06 19.2102  2.012915  0.423306   67.1931  291.1459    6.0738  20220208  14.0  4.0  261P/Larson                                              MPEC 2021-J28
0262P         2030 12 10.7215  1.264877  0.815971  171.0289  217.8730   29.2513  20220208  13.5  4.0  262P/McNaught-Russell                                    MPC 82322
0263P         2023 01 30.5439  1.237672  0.593484   34.9106  105.5604   11.5214  20220208   9.0  4.0  263P/Gibbs                                               MPC 89018
0264P         2019 08  4.5280  2.430473  0.375320  346.7197  220.4781   25.1988  20220208  13.0  4.0  264P/Larsen                                              MPC114608
0265P         2021 02  9.0900  1.499273  0.647558   33.4520  342.9259   14.3650  20220208  14.5  4.0  265P/LINEAR                                              MPC 79870
0266P         2020 04 19.2345  2.333393  0.339545   97.7305    4.9980    3.4270  20220208  14.7  4.0  266P/Christensen                                         MPEC 2021-F20
0267P         2024 04 24.5981  1.238426  0.614376  114.1888  228.5934    6.1406  20220208  19.5  4.0  267P/LONEOS                                              MPC114608
0268P         2024 12 22.3415  2.376663  0.477742  359.8101  127.2949   15.9892  20220208  14.0  4.0  268P/Bernardi                                            MPC 92277
